STARLINK-31871          
1 59673U 24084V   26068.29415533 -.00000438  00000+0 -64246-5 0  9995
2 59673  43.0001  43.9358 0000478 237.1288 122.9518 15.27566683104318
HYPERFIELD-1A           
1 60562U 24149CY  26068.76488211  .00008569  00000+0  30052-3 0  9998
2 60562  97.3842 149.5066 0003865 313.7844  46.3076 15.29681349 86836
